{
  "type": "FeatureCollection",
  "features": [
    {
      "type": "Feature",
      "properties": {
        "norad_id": 58647,
        "name": "TIANMU-1 13",
        "group": "weather",
        "lat": 79.02423331431703,
        "lon": -26.387845310471345,
        "alt_km": 488.13096568324,
        "timestamp": "2025-12-21T22:41:41.091346+00:00",
        "meta_object_name": "TIANMU-1 13",
        "meta_object_id": "2023-205C",
        "meta_epoch": "2025-12-21T14:27:39.177792",
        "meta_mean_motion": 15.24626665,
        "meta_eccentricity": 0.00063583,
        "meta_inclination": 97.3609,
        "meta_ra_of_asc_node": 15.0773,
        "meta_arg_of_pericenter": 227.7887,
        "meta_mean_anomaly": 132.2812,
        "meta_ephemeris_type": 0,
        "meta_classification_type": "U",
        "meta_norad_cat_id": 58647,
        "meta_element_set_no": 999,
        "meta_rev_at_epoch": 11042,
        "meta_bstar": 0.00021067638,
        "meta_mean_motion_dot": 5.13e-05,
        "meta_mean_motion_ddot": 0,
        "tle_line1": "1 58647U 23205C   25355.60253678  .00005130  00000+0  21068-3 0  9997",
        "tle_line2": "2 58647  97.3609  15.0773 0006358 227.7887 132.2812 15.24626665110422"
      },
      "geometry": {
        "type": "Point",
        "coordinates": [
          -26.387845310471345,
          79.02423331431703
        ]
      }
    },
    {
      "type": "Feature",
      "properties": {
        "norad_id": 58648,
        "name": "TIANMU-1 14",
        "group": "weather",
        "lat": 7.498392835083916,
        "lon": -164.27135224812355,
        "alt_km": 491.61613077202037,
        "timestamp": "2025-12-21T22:41:41.091356+00:00",
        "meta_object_name": "TIANMU-1 14",
        "meta_object_id": "2023-205D",
        "meta_epoch": "2025-12-21T14:03:53.267616",
        "meta_mean_motion": 15.24609785,
        "meta_eccentricity": 0.00070962,
        "meta_inclination": 97.3541,
        "meta_ra_of_asc_node": 14.4016,
        "meta_arg_of_pericenter": 234.1666,
        "meta_mean_anomaly": 125.8913,
        "meta_ephemeris_type": 0,
        "meta_classification_type": "U",
        "meta_norad_cat_id": 58648,
        "meta_element_set_no": 999,
        "meta_rev_at_epoch": 11042,
        "meta_bstar": 0.00020581633,
        "meta_mean_motion_dot": 5.008e-05,
        "meta_mean_motion_ddot": 0,
        "tle_line1": "1 58648U 23205D   25355.58603319  .00005008  00000+0  20582-3 0  9990",
        "tle_line2": "2 58648  97.3541  14.4016 0007096 234.1666 125.8913 15.24609785110422"
      },
      "geometry": {
        "type": "Point",
        "coordinates": [
          -164.27135224812355,
          7.498392835083916
        ]
      }
    },
    {
      "type": "Feature",
      "properties": {
        "norad_id": 58660,
        "name": "TIANMU-1 19",
        "group": "weather",
        "lat": 1.1047467240807782,
        "lon": -72.89004223384963,
        "alt_km": 482.1448659546122,
        "timestamp": "2025-12-21T22:41:41.091367+00:00",
        "meta_object_name": "TIANMU-1 19",
        "meta_object_id": "2023-208A",
        "meta_epoch": "2025-12-21T14:03:22.099680",
        "meta_mean_motion": 15.27997693,
        "meta_eccentricity": 0.00045617,
        "meta_inclination": 97.4395,
        "meta_ra_of_asc_node": 106.6063,
        "meta_arg_of_pericenter": 214.1404,
        "meta_mean_anomaly": 145.9542,
        "meta_ephemeris_type": 0,
        "meta_classification_type": "U",
        "meta_norad_cat_id": 58660,
        "meta_element_set_no": 999,
        "meta_rev_at_epoch": 11017,
        "meta_bstar": 0.00028432127,
        "meta_mean_motion_dot": 7.694e-05,
        "meta_mean_motion_ddot": 0,
        "tle_line1": "1 58660U 23208A   25355.58567245  .00007694  00000+0  28432-3 0  9999",
        "tle_line2": "2 58660  97.4395 106.6063 0004561 214.1404 145.9542 15.27997693110176"
      },
      "geometry": {
        "type": "Point",
        "coordinates": [
          -72.89004223384963,
          1.1047467240807782
        ]
      }
    },
    {
      "type": "Feature",
      "properties": {
        "norad_id": 58661,
        "name": "TIANMU-1 20",
        "group": "weather",
        "lat": -66.42556847742709,
        "lon": 124.83200883027634,
        "alt_km": 483.5579155726573,
        "timestamp": "2025-12-21T22:41:41.091377+00:00",
        "meta_object_name": "TIANMU-1 20",
        "meta_object_id": "2023-208B",
        "meta_epoch": "2025-12-21T13:34:01.388640",
        "meta_mean_motion": 15.29187961,
        "meta_eccentricity": 0.00066191,
        "meta_inclination": 97.4333,
        "meta_ra_of_asc_node": 107.0422,
        "meta_arg_of_pericenter": 228.9796,
        "meta_mean_anomaly": 131.0872,
        "meta_ephemeris_type": 0,
        "meta_classification_type": "U",
        "meta_norad_cat_id": 58661,
        "meta_element_set_no": 999,
        "meta_rev_at_epoch": 11024,
        "meta_bstar": 0.00026307135,
        "meta_mean_motion_dot": 7.38e-05,
        "meta_mean_motion_ddot": 0,
        "tle_line1": "1 58661U 23208B   25355.56529385  .00007380  00000+0  26307-3 0  9992",
        "tle_line2": "2 58661  97.4333 107.0422 0006619 228.9796 131.0872 15.29187961110247"
      },
      "geometry": {
        "type": "Point",
        "coordinates": [
          124.83200883027634,
          -66.42556847742709
        ]
      }
    },
    {
      "type": "Feature",
      "properties": {
        "norad_id": 58662,
        "name": "TIANMU-1 21",
        "group": "weather",
        "lat": 20.42039537231213,
        "lon": 106.58398220779549,
        "alt_km": 474.74553598396596,
        "timestamp": "2025-12-21T22:41:41.091390+00:00",
        "meta_object_name": "TIANMU-1 21",
        "meta_object_id": "2023-208C",
        "meta_epoch": "2025-12-21T13:11:51.944064",
        "meta_mean_motion": 15.31724543,
        "meta_eccentricity": 0.00062538,
        "meta_inclination": 97.4382,
        "meta_ra_of_asc_node": 108.9748,
        "meta_arg_of_pericenter": 223.2457,
        "meta_mean_anomaly": 136.8294,
        "meta_ephemeris_type": 0,
        "meta_classification_type": "U",
        "meta_norad_cat_id": 58662,
        "meta_element_set_no": 999,
        "meta_rev_at_epoch": 11034,
        "meta_bstar": 0.00029652233,
        "meta_mean_motion_dot": 9.011e-05,
        "meta_mean_motion_ddot": 0,
        "tle_line1": "1 58662U 23208C   25355.54990676  .00009011  00000+0  29652-3 0  9995",
        "tle_line2": "2 58662  97.4382 108.9748 0006253 223.2457 136.8294 15.31724543110347"
      },
      "geometry": {
        "type": "Point",
        "coordinates": [
          106.58398220779549,
          20.42039537231213
        ]
      }
    },
    {
      "type": "Feature",
      "properties": {
        "norad_id": 58663,
        "name": "TIANMU-1 22",
        "group": "weather",
        "lat": 8.164005765200097,
        "lon": -71.90567343374224,
        "alt_km": 483.7803718937239,
        "timestamp": "2025-12-21T22:41:41.091399+00:00",
        "meta_object_name": "TIANMU-1 22",
        "meta_object_id": "2023-208D",
        "meta_epoch": "2025-12-21T14:05:08.771712",
        "meta_mean_motion": 15.27741357,
        "meta_eccentricity": 0.00028039,
        "meta_inclination": 97.4389,
        "meta_ra_of_asc_node": 106.6624,
        "meta_arg_of_pericenter": 240.1868,
        "meta_mean_anomaly": 119.9093,
        "meta_ephemeris_type": 0,
        "meta_classification_type": "U",
        "meta_norad_cat_id": 58663,
        "meta_element_set_no": 999,
        "meta_rev_at_epoch": 11018,
        "meta_bstar": 0.00025751899,
        "meta_mean_motion_dot": 6.905e-05,
        "meta_mean_motion_ddot": 0,
        "tle_line1": "1 58663U 23208D   25355.58690708  .00006905  00000+0  25752-3 0  9999",
        "tle_line2": "2 58663  97.4389 106.6624 0002803 240.1868 119.9093 15.27741357110182"
      },
      "geometry": {
        "type": "Point",
        "coordinates": [
          -71.90567343374224,
          8.164005765200097
        ]
      }
    },
    {
      "type": "Feature",
      "properties": {
        "norad_id": 58700,
        "name": "TIANMU-1 15",
        "group": "weather",
        "lat": -14.976008373053661,
        "lon": -4.628964775789918,
        "alt_km": 494.7600545165069,
        "timestamp": "2025-12-21T22:41:41.091409+00:00",
        "meta_object_name": "TIANMU-1 15",
        "meta_object_id": "2024-004A",
        "meta_epoch": "2025-12-21T13:57:54.547776",
        "meta_mean_motion": 15.24514134,
        "meta_eccentricity": 0.00059783,
        "meta_inclination": 97.4621,
        "meta_ra_of_asc_node": 177.0181,
        "meta_arg_of_pericenter": 252.4648,
        "meta_mean_anomaly": 107.5937,
        "meta_ephemeris_type": 0,
        "meta_classification_type": "U",
        "meta_norad_cat_id": 58700,
        "meta_element_set_no": 999,
        "meta_rev_at_epoch": 10869,
        "meta_bstar": 0.00023345442,
        "meta_mean_motion_dot": 5.672e-05,
        "meta_mean_motion_ddot": 0,
        "tle_line1": "1 58700U 24004A   25355.58188134  .00005672  00000+0  23345-3 0  9997",
        "tle_line2": "2 58700  97.4621 177.0181 0005978 252.4648 107.5937 15.24514134108692"
      },
      "geometry": {
        "type": "Point",
        "coordinates": [
          -4.628964775789918,
          -14.976008373053661
        ]
      }
    }
  ]
}